STARLINK-5266           
1 55290U 23010X   26157.18240464 -.00001068  00000+0 -81749-4 0  9996
2 55290  69.9992 161.3691 0003619 263.5007  96.5740 14.98322128186529
STARLINK-5327           
1 55291U 23010Y   26157.39937090  .00000160  00000+0  21220-4 0  9996
2 55291  69.9989 160.9212 0003787 266.9606  93.1120 14.98330789186558
STARLINK-5325           
1 55292U 23010Z   26157.43692829  .00001061  00000+0  96696-4 0  9990
2 55292  69.9985 160.6503 0003522 272.9266  87.1490 14.98319230186563
STARLINK-5287           
1 55293U 23010AA  26157.44108398  .00000298  00000+0  32742-4 0  9998
2 55293  69.9984 160.6654 0003798 268.1085  91.9639 14.98332101186561
STARLINK-5286           
1 55294U 23010AB  26157.44548390  .00000032  00000+0  10454-4 0  9991
2 55294  69.9990 180.5461 0003683 269.0293  91.0444 14.98329223186072
STARLINK-5293           
1 55295U 23010AC  26157.48722563  .00000587  00000+0  57009-4 0  9994
2 55295  69.9983 180.6957 0004140 267.5294  92.5391 14.98331773186080
STARLINK-5285           
1 55296U 23010AD  26157.42438797  .00000379  00000+0  39548-4 0  9999
2 55296  69.9985 160.6060 0003789 266.8176  93.2550 14.98332256187448
STARLINK-5284           
1 55297U 23010AE  26157.43273830  .00000311  00000+0  33850-4 0  9992
2 55297  69.9988 160.6366 0003545 267.4868  92.5885 14.98331272186568
STARLINK-5270           
1 55299U 23010AG  26157.28670504  .00010304  00000+0  87157-3 0  9997
2 55299  69.9981 160.9303 0003424 273.1613  86.9154 14.98261981187426
STARLINK-5308           
1 55300U 23010AH  26157.28254317  .00002251  00000+0  19647-3 0  9991
2 55300  69.9986 160.9197 0003536 262.5377  97.5381 14.98317484186540
STARLINK-5321           
1 55302U 23010AK  26157.42856397  .00000524  00000+0  51717-4 0  9991
2 55302  69.9988 160.6184 0003469 270.0172  90.0590 14.98333668186563
STARLINK-5322           
1 55303U 23010AL  26157.43297439 -.00000664  00000+0 -47817-4 0  9992
2 55303  69.9984 180.5027 0003811 272.8903  87.1819 14.98328143186079
STARLINK-5318           
1 55304U 23010AM  26157.27834594  .00000722  00000+0  68339-4 0  9999
2 55304  69.9983 160.8986 0004116 265.2536  94.8153 14.98330144186543
STARLINK-5316           
1 55305U 23010AN  26157.27420021  .00000044  00000+0  11469-4 0  9995
2 55305  69.9986 161.2896 0003756 267.1150  92.9579 14.98330016186543
STARLINK-5295           
1 55306U 23010AP  26157.24476455  .00000678  00000+0  64609-4 0  9992
2 55306  69.9987 141.3111 0003225 269.1849  90.8941 14.98320776187039
STARLINK-5288           
1 55307U 23010AQ  26157.38245330 -.00000968  00000+0 -73322-4 0  9990
2 55307  70.0001 140.9916 0003518 257.8374 102.2391 14.98324950187057
STARLINK-5315           
1 55309U 23010AS  26157.19880199  .00003966  00000+0  33972-3 0  9994
2 55309  70.0007 141.1511 0002945 266.3773  93.7050 14.98361516187033
STARLINK-5309           
1 55310U 23010AT  26157.23639522 -.00003622  00000+0 -29562-3 0  9994
2 55310  69.9970 141.2844 0003954 266.9842  93.0865 14.98363706187035
STARLINK-5312           
1 55311U 23010AU  26157.24059085 -.00000565  00000+0 -39544-4 0  9991
2 55311  69.9988 141.2970 0003356 262.5701  97.5076 14.98323565187905
STARLINK-5296           
1 55312U 23010AV  26157.21132707  .00005924  00000+0  50330-3 0  9999
2 55312  70.0002 141.0835 0002965 267.4379  92.6440 14.98371673187885
STARLINK-5313           
1 55313U 23010AW  26157.22806006  .00000242  00000+0  28063-4 0  9998
2 55313  69.9985 141.2516 0003710 267.2389  92.8345 14.98330896187900
STARLINK-5305           
1 55314U 23010AX  26157.16547522  .00000315  00000+0  34207-4 0  9995
2 55314  69.9989 141.4329 0003396 271.3811  88.6959 14.98330620187892
STARLINK-4623           
1 55315U 23010AY  26157.17821891  .00000195  00000+0  24152-4 0  9995
2 55315  69.9983 161.3527 0004161 266.8592  93.2091 14.98331784186513
STARLINK-5257           
1 55316U 23010AZ  26157.20301608 -.00000026  00000+0  56491-5 0  9995
2 55316  69.9987 141.1796 0003822 266.3716  93.7006 14.98329838187900
STARLINK-5265           
1 55317U 23010BA  26157.22388987 -.00000209  00000+0 -97047-5 0  9999
2 55317  69.9986 141.2645 0003483 270.3662  89.7098 14.98330135187900
STARLINK-5180           
1 55318U 23010BB  26157.21971329  .00000217  00000+0  25974-4 0  9993
2 55318  69.9985 141.2222 0003369 270.2332  89.8441 14.98330376187907
STARLINK-5196           
1 55319U 23010BC  26157.21553875 -.00000042  00000+0  42427-5 0  9996
2 55319  69.9989 141.2090 0003601 269.4762  90.5984 14.98330082187906
STARLINK-5492           
1 55331U 23013A   26157.29604826  .00000187  00000+0  16343-4 0  9990
2 55331  43.0032 163.0926 0001970 271.6520  88.4106 15.27577250186304
STARLINK-5491           
1 55332U 23013B   26157.44531009  .00002324  00000+0  93959-4 0  9993
2 55332  43.0018 147.7621 0001285 255.3342 104.7367 15.27578858185417
STARLINK-5493           
1 55333U 23013C   26157.30376095  .00000121  00000+0  13929-4 0  9993
2 55333  43.0004 163.1468 0001277 269.1682  90.9023 15.27575564185220
