OBJECT_NAME,OBJECT_ID,EPOCH,MEAN_MOTION,ECCENTRICITY,INCLINATION,RA_OF_ASC_NODE,ARG_OF_PERICENTER,MEAN_ANOMALY,EPHEMERIS_TYPE,CLASSIFICATION_TYPE,NORAD_CAT_ID,ELEMENT_SET_NO,REV_AT_EPOCH,BSTAR,MEAN_MOTION_DOT,MEAN_MOTION_DDOT
STARLINK-5266,2023-010X,2026-06-06T04:22:39.760896,14.98322128,.00036194,69.9992,161.3691,263.5007,96.5740,0,U,55290,999,18652,-.81748618E-4,-.1068E-4,0
STARLINK-5327,2023-010Y,2026-06-06T09:35:05.645760,14.98330789,.00037876,69.9989,160.9212,266.9606,93.1120,0,U,55291,999,18655,.21220329E-4,.16E-5,0
STARLINK-5325,2023-010Z,2026-06-06T10:29:10.604256,14.98319230,.00035224,69.9985,160.6503,272.9266,87.1490,0,U,55292,999,18656,.96695832E-4,.1061E-4,0
STARLINK-5287,2023-010AA,2026-06-06T10:35:09.655872,14.98332101,.00037982,69.9984,160.6654,268.1085,91.9639,0,U,55293,999,18656,.3274214E-4,.298E-5,0
STARLINK-5286,2023-010AB,2026-06-06T10:41:29.808960,14.98329223,.0003683,69.9990,180.5461,269.0293,91.0444,0,U,55294,999,18607,.10453586E-4,.32E-6,0
STARLINK-5293,2023-010AC,2026-06-06T11:41:36.294432,14.98331773,.00041402,69.9983,180.6957,267.5294,92.5391,0,U,55295,999,18608,.57008973E-4,.587E-5,0
STARLINK-5285,2023-010AD,2026-06-06T10:11:07.120608,14.98332256,.00037893,69.9985,160.6060,266.8176,93.2550,0,U,55296,999,18744,.39547697E-4,.379E-5,0
STARLINK-5284,2023-010AE,2026-06-06T10:23:08.589120,14.98331272,.00035455,69.9988,160.6366,267.4868,92.5885,0,U,55297,999,18656,.33849505E-4,.311E-5,0
STARLINK-5270,2023-010AG,2026-06-06T06:52:51.315456,14.98261981,.00034243,69.9981,160.9303,273.1613,86.9154,0,U,55299,999,18742,.87156741E-3,.10304E-3,0
STARLINK-5308,2023-010AH,2026-06-06T06:46:51.729888,14.98317484,.00035361,69.9986,160.9197,262.5377,97.5381,0,U,55300,999,18654,.19646687E-3,.2251E-4,0
STARLINK-5321,2023-010AK,2026-06-06T10:17:07.927008,14.98333668,.00034693,69.9988,160.6184,270.0172,90.0590,0,U,55302,999,18656,.5171745E-4,.524E-5,0
STARLINK-5322,2023-010AL,2026-06-06T10:23:28.987296,14.98328143,.00038117,69.9984,180.5027,272.8903,87.1819,0,U,55303,999,18607,-.47816858E-4,-.664E-5,0
STARLINK-5318,2023-010AM,2026-06-06T06:40:49.089216,14.98330144,.00041162,69.9983,160.8986,265.2536,94.8153,0,U,55304,999,18654,.6833883E-4,.722E-5,0
STARLINK-5316,2023-010AN,2026-06-06T06:34:50.898144,14.98330016,.00037561,69.9986,161.2896,267.1150,92.9579,0,U,55305,999,18654,.11469356E-4,.44E-6,0
STARLINK-5295,2023-010AP,2026-06-06T05:52:27.657120,14.98320776,.00032256,69.9987,141.3111,269.1849,90.8941,0,U,55306,999,18703,.64609216E-4,.678E-5,0
STARLINK-5288,2023-010AQ,2026-06-06T09:10:43.965120,14.98324950,.0003518,70.0001,140.9916,257.8374,102.2391,0,U,55307,999,18705,-.7332178E-4,-.968E-5,0
STARLINK-5315,2023-010AS,2026-06-06T04:46:16.491936,14.98361516,.00029454,70.0007,141.1511,266.3773,93.7050,0,U,55309,999,18703,.33971818E-3,.3966E-4,0
STARLINK-5309,2023-010AT,2026-06-06T05:40:24.547008,14.98363706,.0003954,69.9970,141.2844,266.9842,93.0865,0,U,55310,999,18703,-.29561799E-3,-.3622E-4,0
STARLINK-5312,2023-010AU,2026-06-06T05:46:27.049440,14.98323565,.00033567,69.9988,141.2970,262.5701,97.5076,0,U,55311,999,18790,-.39543701E-4,-.565E-5,0
STARLINK-5296,2023-010AV,2026-06-06T05:04:18.658848,14.98371673,.00029654,70.0002,141.0835,267.4379,92.6440,0,U,55312,999,18788,.50329526E-3,.5924E-4,0
STARLINK-5313,2023-010AW,2026-06-06T05:28:24.389184,14.98330896,.000371,69.9985,141.2516,267.2389,92.8345,0,U,55313,999,18790,.28062991E-4,.242E-5,0
STARLINK-5305,2023-010AX,2026-06-06T03:58:17.059008,14.98330620,.00033969,69.9989,141.4329,271.3811,88.6959,0,U,55314,999,18789,.34207473E-4,.315E-5,0
STARLINK-4623,2023-010AY,2026-06-06T04:16:38.113824,14.98331784,.00041619,69.9983,161.3527,266.8592,93.2091,0,U,55315,999,18651,.24152152E-4,.195E-5,0
STARLINK-5257,2023-010AZ,2026-06-06T04:52:20.589312,14.98329838,.00038228,69.9987,141.1796,266.3716,93.7006,0,U,55316,999,18790,.5649064E-5,-.26E-6,0
STARLINK-5265,2023-010BA,2026-06-06T05:22:24.084768,14.98330135,.00034834,69.9986,141.2645,270.3662,89.7098,0,U,55317,999,18790,-.9704745E-5,-.209E-5,0
STARLINK-5180,2023-010BB,2026-06-06T05:16:23.228256,14.98330376,.0003369,69.9985,141.2222,270.2332,89.8441,0,U,55318,999,18790,.25973932E-4,.217E-5,0
STARLINK-5196,2023-010BC,2026-06-06T05:10:22.548000,14.98330082,.0003601,69.9989,141.2090,269.4762,90.5984,0,U,55319,999,18790,.4242653E-5,-.42E-6,0
STARLINK-5492,2023-013A,2026-06-06T07:06:18.569664,15.27577250,.00019707,43.0032,163.0926,271.6520,88.4106,0,U,55331,999,18630,.16342562E-4,.187E-5,0
STARLINK-5491,2023-013B,2026-06-06T10:41:14.791776,15.27578858,.0001285,43.0018,147.7621,255.3342,104.7367,0,U,55332,999,18541,.93959348E-4,.2324E-4,0
STARLINK-5493,2023-013C,2026-06-06T07:17:24.946080,15.27575564,.00012776,43.0004,163.1468,269.1682,90.9023,0,U,55333,999,18522,.13929162E-4,.121E-5,0
